{
  "type": "FeatureCollection",
  "features": [
    {
      "type": "Feature",
      "properties": {
        "route_type": "optimized"
      },
      "geometry": {
        "type": "LineString",
        "coordinates": [
          [
            150.125,
            -65.375
          ],
          [
            150.125,
            -65.125
          ]
        ]
      }
    },
    {
      "type": "Feature",
      "properties": {
        "route_type": "naive"
      },
      "geometry": {
        "type": "LineString",
        "coordinates": [
          [
            150.125,
            -65.375
          ],
          [
            150.125,
            -65.125
          ]
        ]
      }
    },
    {
      "type": "Feature",
      "properties": {
        "feature_type": "iceberg_current",
        "iceberg_id": "B22A",
        "length_m": 53708.0,
        "width_m": 46300.0
      },
      "geometry": {
        "type": "Point",
        "coordinates": [
          164.79,
          -69.88
        ]
      }
    },
    {
      "type": "Feature",
      "properties": {
        "feature_type": "iceberg_predicted_track",
        "iceberg_id": "B22A"
      },
      "geometry": {
        "type": "LineString",
        "coordinates": [
          [
            164.79,
            -69.88
          ],
          [
            164.56733871811775,
            -69.87606698769014
          ],
          [
            164.47099251328783,
            -69.83593355592947
          ],
          [
            164.37734063676638,
            -69.828604875555
          ],
          [
            164.32107406476493,
            -69.82663449008987
          ],
          [
            164.17414472908834,
            -69.81485015580937
          ],
          [
            163.86180140163756,
            -69.76729067926335
          ],
          [
            163.87321031691826,
            -69.76688423829104
          ]
        ]
      }
    },
    {
      "type": "Feature",
      "properties": {
        "feature_type": "iceberg_drift_cone",
        "iceberg_id": "B22A",
        "n_ensemble_members": 9
      },
      "geometry": {
        "type": "MultiPoint",
        "coordinates": [
          [
            163.87321031691826,
            -69.76688423829104
          ],
          [
            163.90946156329548,
            -69.77136753995696
          ],
          [
            163.84442740380172,
            -69.76332543711713
          ],
          [
            163.77401888063798,
            -69.75461237429424
          ],
          [
            163.63661748590687,
            -69.73908945223259
          ],
          [
            164.22544692697923,
            -69.80658001048893
          ],
          [
            163.86188438243576,
            -69.76548285378331
          ],
          [
            163.93325774381987,
            -69.77430630453901
          ],
          [
            164.0663449673152,
            -69.7874245096659
          ]
        ]
      }
    },
    {
      "type": "Feature",
      "properties": {
        "feature_type": "iceberg_current",
        "iceberg_id": "B22H",
        "length_m": 14816.0,
        "width_m": 11112.0
      },
      "geometry": {
        "type": "Point",
        "coordinates": [
          163.7,
          -70.21
        ]
      }
    },
    {
      "type": "Feature",
      "properties": {
        "feature_type": "iceberg_predicted_track",
        "iceberg_id": "B22H"
      },
      "geometry": {
        "type": "LineString",
        "coordinates": [
          [
            163.7,
            -70.21
          ],
          [
            163.47027222280386,
            -70.19424679917071
          ],
          [
            163.36640498252845,
            -70.14485083960878
          ],
          [
            163.25122120020018,
            -70.13004286306865
          ],
          [
            163.16903313188593,
            -70.12979812605188
          ],
          [
            163.00590475096777,
            -70.11583111478633
          ],
          [
            162.73245912199505,
            -70.06909688861822
          ],
          [
            162.7423719658493,
            -70.06291188794802
          ]
        ]
      }
    },
    {
      "type": "Feature",
      "properties": {
        "feature_type": "iceberg_drift_cone",
        "iceberg_id": "B22H",
        "n_ensemble_members": 9
      },
      "geometry": {
        "type": "MultiPoint",
        "coordinates": [
          [
            162.7423719658493,
            -70.06291188794802
          ],
          [
            162.83186564341742,
            -70.07782352612607
          ],
          [
            162.4665202889217,
            -70.01654535439097
          ],
          [
            162.39806715815232,
            -70.00136922638436
          ],
          [
            162.6602661371026,
            -70.0479828080162
          ],
          [
            162.73335842483667,
            -70.05914483308646
          ],
          [
            163.00598469089266,
            -70.10595169598463
          ],
          [
            162.69730854862834,
            -70.05374258215593
          ],
          [
            162.80108741131056,
            -70.07314270220363
          ]
        ]
      }
    }
  ]
}