{
  "type": "FeatureCollection",
  "features": [
    {
      "type": "Feature",
      "properties": {
        "route_type": "optimized"
      },
      "geometry": {
        "type": "LineString",
        "coordinates": [
          [
            -56.875,
            -65.375
          ],
          [
            -57.125,
            -65.125
          ],
          [
            -57.375,
            -64.875
          ],
          [
            -57.125,
            -64.625
          ],
          [
            -56.875,
            -64.375
          ],
          [
            -57.125,
            -64.125
          ],
          [
            -57.375,
            -63.875
          ],
          [
            -57.125,
            -63.625
          ],
          [
            -56.875,
            -63.375
          ],
          [
            -57.125,
            -63.125
          ],
          [
            -57.375,
            -62.875
          ],
          [
            -57.125,
            -62.625
          ],
          [
            -56.875,
            -62.375
          ],
          [
            -56.625,
            -62.125
          ],
          [
            -56.375,
            -61.875
          ],
          [
            -56.125,
            -61.625
          ],
          [
            -55.875,
            -61.375
          ],
          [
            -55.625,
            -61.125
          ],
          [
            -55.375,
            -60.875
          ],
          [
            -55.125,
            -60.625
          ],
          [
            -54.875,
            -60.375
          ],
          [
            -54.625,
            -60.125
          ],
          [
            -54.375,
            -59.875
          ],
          [
            -54.125,
            -59.625
          ],
          [
            -53.875,
            -59.375
          ],
          [
            -53.625,
            -59.125
          ],
          [
            -53.375,
            -58.875
          ],
          [
            -53.125,
            -58.625
          ],
          [
            -52.875,
            -58.375
          ],
          [
            -52.625,
            -58.125
          ],
          [
            -52.375,
            -57.875
          ],
          [
            -52.125,
            -57.625
          ],
          [
            -51.875,
            -57.375
          ],
          [
            -51.625,
            -57.125
          ],
          [
            -51.375,
            -56.875
          ],
          [
            -51.125,
            -56.625
          ],
          [
            -50.875,
            -56.375
          ],
          [
            -50.625,
            -56.125
          ],
          [
            -50.375,
            -55.875
          ],
          [
            -50.125,
            -55.625
          ],
          [
            -49.875,
            -55.375
          ],
          [
            -49.625,
            -55.125
          ],
          [
            -49.375,
            -54.875
          ],
          [
            -49.125,
            -54.625
          ],
          [
            -48.875,
            -54.375
          ],
          [
            -48.625,
            -54.125
          ],
          [
            -48.375,
            -54.125
          ],
          [
            -48.125,
            -54.125
          ],
          [
            -47.875,
            -54.125
          ],
          [
            -47.625,
            -54.125
          ],
          [
            -47.375,
            -54.125
          ],
          [
            -47.125,
            -54.125
          ],
          [
            -46.875,
            -54.125
          ],
          [
            -46.625,
            -54.125
          ],
          [
            -46.375,
            -54.125
          ],
          [
            -46.125,
            -54.125
          ],
          [
            -45.875,
            -54.125
          ],
          [
            -45.625,
            -54.125
          ],
          [
            -45.375,
            -54.125
          ],
          [
            -45.125,
            -54.125
          ],
          [
            -44.875,
            -54.125
          ],
          [
            -44.625,
            -54.125
          ],
          [
            -44.375,
            -54.125
          ],
          [
            -44.125,
            -54.375
          ],
          [
            -43.875,
            -54.375
          ],
          [
            -43.625,
            -54.375
          ],
          [
            -43.375,
            -54.625
          ],
          [
            -43.125,
            -54.875
          ],
          [
            -42.875,
            -54.875
          ],
          [
            -42.625,
            -55.125
          ],
          [
            -42.375,
            -54.875
          ],
          [
            -42.125,
            -54.625
          ],
          [
            -41.875,
            -54.375
          ],
          [
            -41.625,
            -54.375
          ],
          [
            -41.375,
            -54.375
          ],
          [
            -41.125,
            -54.375
          ],
          [
            -40.875,
            -54.375
          ],
          [
            -40.625,
            -54.375
          ],
          [
            -40.375,
            -54.625
          ],
          [
            -40.125,
            -54.625
          ],
          [
            -39.875,
            -54.625
          ],
          [
            -39.625,
            -54.875
          ],
          [
            -39.375,
            -54.875
          ],
          [
            -39.125,
            -54.875
          ],
          [
            -38.875,
            -54.875
          ],
          [
            -38.625,
            -55.125
          ],
          [
            -38.375,
            -55.125
          ],
          [
            -38.125,
            -55.375
          ],
          [
            -37.875,
            -55.375
          ],
          [
            -37.625,
            -55.625
          ],
          [
            -37.375,
            -55.875
          ],
          [
            -37.125,
            -56.125
          ],
          [
            -36.875,
            -56.375
          ]
        ]
      }
    },
    {
      "type": "Feature",
      "properties": {
        "route_type": "naive"
      },
      "geometry": {
        "type": "LineString",
        "coordinates": [
          [
            -56.875,
            -65.375
          ],
          [
            -56.625,
            -65.375
          ],
          [
            -56.375,
            -65.125
          ],
          [
            -56.125,
            -65.125
          ],
          [
            -55.875,
            -64.875
          ],
          [
            -55.625,
            -64.875
          ],
          [
            -55.375,
            -64.625
          ],
          [
            -55.125,
            -64.625
          ],
          [
            -54.875,
            -64.375
          ],
          [
            -54.625,
            -64.375
          ],
          [
            -54.375,
            -64.375
          ],
          [
            -54.125,
            -64.125
          ],
          [
            -53.875,
            -64.125
          ],
          [
            -53.625,
            -63.875
          ],
          [
            -53.375,
            -63.875
          ],
          [
            -53.125,
            -63.625
          ],
          [
            -52.875,
            -63.625
          ],
          [
            -52.625,
            -63.375
          ],
          [
            -52.375,
            -63.375
          ],
          [
            -52.125,
            -63.125
          ],
          [
            -51.875,
            -63.125
          ],
          [
            -51.625,
            -63.125
          ],
          [
            -51.375,
            -62.875
          ],
          [
            -51.125,
            -62.875
          ],
          [
            -50.875,
            -62.625
          ],
          [
            -50.625,
            -62.625
          ],
          [
            -50.375,
            -62.375
          ],
          [
            -50.125,
            -62.375
          ],
          [
            -49.875,
            -62.125
          ],
          [
            -49.625,
            -62.125
          ],
          [
            -49.375,
            -61.875
          ],
          [
            -49.125,
            -61.875
          ],
          [
            -48.875,
            -61.875
          ],
          [
            -48.625,
            -61.625
          ],
          [
            -48.375,
            -61.625
          ],
          [
            -48.125,
            -61.375
          ],
          [
            -47.875,
            -61.375
          ],
          [
            -47.625,
            -61.125
          ],
          [
            -47.375,
            -61.125
          ],
          [
            -47.125,
            -60.875
          ],
          [
            -46.875,
            -60.875
          ],
          [
            -46.625,
            -60.875
          ],
          [
            -46.375,
            -60.625
          ],
          [
            -46.125,
            -60.625
          ],
          [
            -45.875,
            -60.375
          ],
          [
            -45.625,
            -60.375
          ],
          [
            -45.375,
            -60.125
          ],
          [
            -45.125,
            -60.125
          ],
          [
            -44.875,
            -59.875
          ],
          [
            -44.625,
            -59.875
          ],
          [
            -44.375,
            -59.875
          ],
          [
            -44.125,
            -59.625
          ],
          [
            -43.875,
            -59.625
          ],
          [
            -43.625,
            -59.375
          ],
          [
            -43.375,
            -59.375
          ],
          [
            -43.125,
            -59.125
          ],
          [
            -42.875,
            -59.125
          ],
          [
            -42.625,
            -58.875
          ],
          [
            -42.375,
            -58.875
          ],
          [
            -42.125,
            -58.625
          ],
          [
            -41.875,
            -58.625
          ],
          [
            -41.625,
            -58.625
          ],
          [
            -41.375,
            -58.375
          ],
          [
            -41.125,
            -58.375
          ],
          [
            -40.875,
            -58.125
          ],
          [
            -40.625,
            -58.125
          ],
          [
            -40.375,
            -57.875
          ],
          [
            -40.125,
            -57.875
          ],
          [
            -39.875,
            -57.625
          ],
          [
            -39.625,
            -57.625
          ],
          [
            -39.375,
            -57.375
          ],
          [
            -39.125,
            -57.375
          ],
          [
            -38.875,
            -57.375
          ],
          [
            -38.625,
            -57.125
          ],
          [
            -38.375,
            -57.125
          ],
          [
            -38.125,
            -56.875
          ],
          [
            -37.875,
            -56.875
          ],
          [
            -37.625,
            -56.625
          ],
          [
            -37.375,
            -56.625
          ],
          [
            -37.125,
            -56.375
          ],
          [
            -36.875,
            -56.375
          ]
        ]
      }
    },
    {
      "type": "Feature",
      "properties": {
        "feature_type": "iceberg_current",
        "iceberg_id": "D32",
        "length_m": 16668.0,
        "width_m": 11112.0
      },
      "geometry": {
        "type": "Point",
        "coordinates": [
          -39.14,
          -57.96
        ]
      }
    },
    {
      "type": "Feature",
      "properties": {
        "feature_type": "iceberg_predicted_track",
        "iceberg_id": "D32"
      },
      "geometry": {
        "type": "LineString",
        "coordinates": [
          [
            -39.14,
            -57.96
          ],
          [
            -39.1018557395345,
            -57.89921004226601
          ],
          [
            -39.13603858789101,
            -57.89118774450969
          ],
          [
            -39.2649716173328,
            -57.853800680094125
          ],
          [
            -39.047670648199954,
            -57.77196915755052
          ],
          [
            -38.81863833942842,
            -57.68708586077977
          ],
          [
            -38.71824937738528,
            -57.61405540174283
          ],
          [
            -38.70998781012296,
            -57.58628834675964
          ]
        ]
      }
    },
    {
      "type": "Feature",
      "properties": {
        "feature_type": "iceberg_drift_cone",
        "iceberg_id": "D32",
        "n_ensemble_members": 9
      },
      "geometry": {
        "type": "MultiPoint",
        "coordinates": [
          [
            -38.70998781012296,
            -57.58628834675964
          ],
          [
            -38.727709008547954,
            -57.59894798720406
          ],
          [
            -38.69881031619217,
            -57.56887332722896
          ],
          [
            -38.660644366228944,
            -57.55293632476018
          ],
          [
            -38.57627427198203,
            -57.44945791643317
          ],
          [
            -38.87409994762837,
            -57.730277824094344
          ],
          [
            -38.70224536225737,
            -57.58733503568811
          ],
          [
            -38.73186686019091,
            -57.625862244001
          ],
          [
            -38.80250389631495,
            -57.67935386468694
          ]
        ]
      }
    },
    {
      "type": "Feature",
      "properties": {
        "feature_type": "iceberg_current",
        "iceberg_id": "D33A",
        "length_m": 35188.0,
        "width_m": 18520.0
      },
      "geometry": {
        "type": "Point",
        "coordinates": [
          -55.59,
          -64.0
        ]
      }
    },
    {
      "type": "Feature",
      "properties": {
        "feature_type": "iceberg_predicted_track",
        "iceberg_id": "D33A"
      },
      "geometry": {
        "type": "LineString",
        "coordinates": [
          [
            -55.59,
            -64.0
          ],
          [
            -55.652376198510034,
            -63.980986193762405
          ],
          [
            -55.714072999366195,
            -63.96062373856211
          ],
          [
            -55.71829224232706,
            -63.9265801574387
          ],
          [
            -55.69635033084843,
            -63.853453622508646
          ],
          [
            -55.69646779059309,
            -63.789211338878125
          ],
          [
            -55.688347473213206,
            -63.769739762182176
          ],
          [
            -55.646430631901964,
            -63.75757090664408
          ]
        ]
      }
    },
    {
      "type": "Feature",
      "properties": {
        "feature_type": "iceberg_drift_cone",
        "iceberg_id": "D33A",
        "n_ensemble_members": 9
      },
      "geometry": {
        "type": "MultiPoint",
        "coordinates": [
          [
            -55.646430631901964,
            -63.75757090664408
          ],
          [
            -55.64104107450927,
            -63.780575014685155
          ],
          [
            -55.67521986115162,
            -63.701638986685936
          ],
          [
            -55.68156887801068,
            -63.67955090019786
          ],
          [
            -55.65943088326523,
            -63.73318258284564
          ],
          [
            -55.64803393690995,
            -63.750733511810935
          ],
          [
            -55.63074523656708,
            -63.82460682083092
          ],
          [
            -55.65018688720717,
            -63.741556395400806
          ],
          [
            -55.64286559999149,
            -63.77278398013458
          ]
        ]
      }
    },
    {
      "type": "Feature",
      "properties": {
        "feature_type": "iceberg_current",
        "iceberg_id": "D33B",
        "length_m": 38892.0,
        "width_m": 22224.0
      },
      "geometry": {
        "type": "Point",
        "coordinates": [
          -50.29,
          -58.69
        ]
      }
    },
    {
      "type": "Feature",
      "properties": {
        "feature_type": "iceberg_predicted_track",
        "iceberg_id": "D33B"
      },
      "geometry": {
        "type": "LineString",
        "coordinates": [
          [
            -50.29,
            -58.69
          ],
          [
            -49.910636316164165,
            -58.56149769202467
          ],
          [
            -49.73871044753213,
            -58.58539544104565
          ],
          [
            -49.38106351926882,
            -58.52204552669199
          ],
          [
            -48.54313232058308,
            -58.47262260357766
          ],
          [
            -47.64278061972369,
            -58.45883205305433
          ],
          [
            -47.18687268987044,
            -58.509309627404164
          ],
          [
            -46.65721674354347,
            -58.55227338246084
          ]
        ]
      }
    },
    {
      "type": "Feature",
      "properties": {
        "feature_type": "iceberg_drift_cone",
        "iceberg_id": "D33B",
        "n_ensemble_members": 9
      },
      "geometry": {
        "type": "MultiPoint",
        "coordinates": [
          [
            -46.65721674354347,
            -58.55227338246084
          ],
          [
            -46.293986117675416,
            -58.5318139246311
          ],
          [
            -46.49293973561321,
            -58.5059237319165
          ],
          [
            -46.71538031668155,
            -58.57365157144115
          ],
          [
            -45.88499540621633,
            -58.385330396641656
          ],
          [
            -45.84912974029104,
            -58.404400305601946
          ],
          [
            -46.20083937181076,
            -58.48727416293642
          ],
          [
            -46.929010450102744,
            -58.56968995380878
          ],
          [
            -45.47486798280142,
            -58.31694648817708
          ]
        ]
      }
    },
    {
      "type": "Feature",
      "properties": {
        "feature_type": "iceberg_current",
        "iceberg_id": "D33C",
        "length_m": 16668.0,
        "width_m": 9260.0
      },
      "geometry": {
        "type": "Point",
        "coordinates": [
          -53.92,
          -61.64
        ]
      }
    },
    {
      "type": "Feature",
      "properties": {
        "feature_type": "iceberg_predicted_track",
        "iceberg_id": "D33C"
      },
      "geometry": {
        "type": "LineString",
        "coordinates": [
          [
            -53.92,
            -61.64
          ],
          [
            -53.94504483746939,
            -61.59829827377102
          ],
          [
            -54.033540146701206,
            -61.57584813831645
          ],
          [
            -53.96073333806256,
            -61.52166561203395
          ],
          [
            -53.898182969303086,
            -61.441399724337856
          ],
          [
            -53.81968272393159,
            -61.35216131058626
          ],
          [
            -53.83462166408013,
            -61.328756401122696
          ],
          [
            -53.747009931039436,
            -61.27057102622772
          ]
        ]
      }
    },
    {
      "type": "Feature",
      "properties": {
        "feature_type": "iceberg_drift_cone",
        "iceberg_id": "D33C",
        "n_ensemble_members": 9
      },
      "geometry": {
        "type": "MultiPoint",
        "coordinates": [
          [
            -53.747009931039436,
            -61.27057102622772
          ],
          [
            -53.66149672824166,
            -61.112336697258094
          ],
          [
            -53.82404011138332,
            -61.40327120060963
          ],
          [
            -53.70307875676099,
            -61.20081045833085
          ],
          [
            -53.7255504518577,
            -61.22839465797444
          ],
          [
            -53.70140293077783,
            -61.195859170476936
          ],
          [
            -53.780601428289394,
            -61.34452991608196
          ],
          [
            -53.82177579388992,
            -61.39956444052047
          ],
          [
            -53.77456279014897,
            -61.3227925953476
          ]
        ]
      }
    },
    {
      "type": "Feature",
      "properties": {
        "feature_type": "iceberg_current",
        "iceberg_id": "D33D",
        "length_m": 27780.0,
        "width_m": 11112.0
      },
      "geometry": {
        "type": "Point",
        "coordinates": [
          -55.14,
          -63.57
        ]
      }
    },
    {
      "type": "Feature",
      "properties": {
        "feature_type": "iceberg_predicted_track",
        "iceberg_id": "D33D"
      },
      "geometry": {
        "type": "LineString",
        "coordinates": [
          [
            -55.14,
            -63.57
          ],
          [
            -55.22462722183405,
            -63.54559669115733
          ],
          [
            -55.31135003370024,
            -63.520219955062835
          ],
          [
            -55.32256910384479,
            -63.48263327338487
          ],
          [
            -55.31513182949331,
            -63.41527846973129
          ],
          [
            -55.3259087231336,
            -63.35245286524048
          ],
          [
            -55.32866935761049,
            -63.33318941214027
          ],
          [
            -55.295668889546555,
            -63.32152005639908
          ]
        ]
      }
    },
    {
      "type": "Feature",
      "properties": {
        "feature_type": "iceberg_drift_cone",
        "iceberg_id": "D33D",
        "n_ensemble_members": 9
      },
      "geometry": {
        "type": "MultiPoint",
        "coordinates": [
          [
            -55.295668889546555,
            -63.32152005639908
          ],
          [
            -55.28392865326502,
            -63.34047893334224
          ],
          [
            -55.341911189545954,
            -63.223332764357515
          ],
          [
            -55.18936836588877,
            -63.4740314268472
          ],
          [
            -55.327281032016494,
            -63.270983000693555
          ],
          [
            -55.26759165634967,
            -63.365957576649535
          ],
          [
            -55.23244013654537,
            -63.40823136694002
          ],
          [
            -55.339050935451176,
            -63.25281373264928
          ],
          [
            -55.377454777283276,
            -63.17619380218173
          ]
        ]
      }
    },
    {
      "type": "Feature",
      "properties": {
        "feature_type": "iceberg_current",
        "iceberg_id": "D35",
        "length_m": 27780.0,
        "width_m": 11112.0
      },
      "geometry": {
        "type": "Point",
        "coordinates": [
          -44.98,
          -60.35
        ]
      }
    },
    {
      "type": "Feature",
      "properties": {
        "feature_type": "iceberg_predicted_track",
        "iceberg_id": "D35"
      },
      "geometry": {
        "type": "LineString",
        "coordinates": [
          [
            -44.98,
            -60.35
          ],
          [
            -44.97753701628632,
            -60.30752715964639
          ],
          [
            -45.029513128543186,
            -60.28879961648516
          ],
          [
            -45.0328943954975,
            -60.25298062285914
          ],
          [
            -44.893764780958755,
            -60.18012914386122
          ],
          [
            -44.75778617108038,
            -60.09154157362014
          ],
          [
            -44.77071770649568,
            -60.02713585506423
          ],
          [
            -44.74980378170466,
            -60.01816631683743
          ]
        ]
      }
    },
    {
      "type": "Feature",
      "properties": {
        "feature_type": "iceberg_drift_cone",
        "iceberg_id": "D35",
        "n_ensemble_members": 9
      },
      "geometry": {
        "type": "MultiPoint",
        "coordinates": [
          [
            -44.74980378170466,
            -60.01816631683743
          ],
          [
            -44.79355669853003,
            -60.08074636261844
          ],
          [
            -44.8250062828893,
            -60.126478505577076
          ],
          [
            -44.6844423997716,
            -59.940487447855716
          ],
          [
            -44.63029149606559,
            -59.864808425162714
          ],
          [
            -44.60042690329374,
            -59.823842097515964
          ],
          [
            -44.60913048800735,
            -59.83574532368671
          ],
          [
            -44.80040871213308,
            -60.091282474024865
          ],
          [
            -44.65506845420704,
            -59.898750489281944
          ]
        ]
      }
    }
  ]
}