{
  "type": "FeatureCollection",
  "features": [
    {
      "type": "Feature",
      "properties": {
        "route_type": "optimized"
      },
      "geometry": {
        "type": "LineString",
        "coordinates": [
          [
            66.125,
            -65.375
          ],
          [
            66.375,
            -65.125
          ],
          [
            66.625,
            -64.875
          ],
          [
            66.375,
            -64.625
          ],
          [
            66.125,
            -64.375
          ],
          [
            66.125,
            -64.125
          ],
          [
            66.125,
            -63.875
          ],
          [
            66.125,
            -63.625
          ],
          [
            66.375,
            -63.375
          ],
          [
            66.125,
            -63.125
          ],
          [
            66.375,
            -62.875
          ],
          [
            66.625,
            -62.625
          ],
          [
            66.375,
            -62.375
          ],
          [
            66.125,
            -62.125
          ],
          [
            66.375,
            -61.875
          ],
          [
            66.125,
            -61.625
          ],
          [
            66.125,
            -61.375
          ],
          [
            66.125,
            -61.125
          ],
          [
            66.125,
            -60.875
          ],
          [
            66.125,
            -60.625
          ],
          [
            66.125,
            -60.375
          ],
          [
            66.125,
            -60.125
          ]
        ]
      }
    },
    {
      "type": "Feature",
      "properties": {
        "route_type": "naive"
      },
      "geometry": {
        "type": "LineString",
        "coordinates": [
          [
            66.125,
            -65.375
          ],
          [
            66.125,
            -65.125
          ],
          [
            66.125,
            -64.875
          ],
          [
            66.125,
            -64.625
          ],
          [
            66.125,
            -64.375
          ],
          [
            66.125,
            -64.125
          ],
          [
            66.125,
            -63.875
          ],
          [
            66.125,
            -63.625
          ],
          [
            66.125,
            -63.375
          ],
          [
            66.125,
            -63.125
          ],
          [
            66.125,
            -62.875
          ],
          [
            66.125,
            -62.625
          ],
          [
            66.125,
            -62.375
          ],
          [
            66.125,
            -62.125
          ],
          [
            66.125,
            -61.875
          ],
          [
            66.125,
            -61.625
          ],
          [
            66.125,
            -61.375
          ],
          [
            66.125,
            -61.125
          ],
          [
            66.125,
            -60.875
          ],
          [
            66.125,
            -60.625
          ],
          [
            66.125,
            -60.375
          ],
          [
            66.125,
            -60.125
          ]
        ]
      }
    },
    {
      "type": "Feature",
      "properties": {
        "feature_type": "iceberg_current",
        "iceberg_id": "D15A",
        "length_m": 94452.0,
        "width_m": 40744.0
      },
      "geometry": {
        "type": "Point",
        "coordinates": [
          81.92,
          -66.63
        ]
      }
    },
    {
      "type": "Feature",
      "properties": {
        "feature_type": "iceberg_predicted_track",
        "iceberg_id": "D15A"
      },
      "geometry": {
        "type": "LineString",
        "coordinates": [
          [
            81.92,
            -66.63
          ],
          [
            81.94557631422919,
            -66.61531916692745
          ],
          [
            81.85342401738356,
            -66.65190639051977
          ],
          [
            81.83374975223067,
            -66.6522977379495
          ],
          [
            81.83930163205366,
            -66.65435588646538
          ],
          [
            81.83841713697733,
            -66.66499990090196
          ],
          [
            81.63076133063109,
            -66.74617762663507
          ],
          [
            81.60411440657896,
            -66.78582649064548
          ]
        ]
      }
    },
    {
      "type": "Feature",
      "properties": {
        "feature_type": "iceberg_drift_cone",
        "iceberg_id": "D15A",
        "n_ensemble_members": 9
      },
      "geometry": {
        "type": "MultiPoint",
        "coordinates": [
          [
            81.60411440657896,
            -66.78582649064548
          ],
          [
            81.61795414672899,
            -66.7800069014904
          ],
          [
            81.58197275984953,
            -66.7967561441238
          ],
          [
            81.55628495228297,
            -66.80659907244414
          ],
          [
            81.49860886483346,
            -66.83763654512096
          ],
          [
            81.72427074253005,
            -66.72719204333114
          ],
          [
            81.60009504292422,
            -66.78667103809424
          ],
          [
            81.62465328252142,
            -66.77273555596797
          ],
          [
            81.67356583920262,
            -66.75063799113671
          ]
        ]
      }
    },
    {
      "type": "Feature",
      "properties": {
        "feature_type": "iceberg_current",
        "iceberg_id": "D15B",
        "length_m": 37040.0,
        "width_m": 22224.0
      },
      "geometry": {
        "type": "Point",
        "coordinates": [
          81.58,
          -67.02
        ]
      }
    },
    {
      "type": "Feature",
      "properties": {
        "feature_type": "iceberg_predicted_track",
        "iceberg_id": "D15B"
      },
      "geometry": {
        "type": "LineString",
        "coordinates": [
          [
            81.58,
            -67.02
          ],
          [
            81.61531533307931,
            -67.0180633934939
          ],
          [
            81.57820777685897,
            -67.04418343356453
          ],
          [
            81.57976300358077,
            -67.05570165626216
          ],
          [
            81.58152054836859,
            -67.06691110434171
          ],
          [
            81.57296709329309,
            -67.0852233343473
          ],
          [
            81.42456738184663,
            -67.14420796244261
          ],
          [
            81.36926728029472,
            -67.1969800623602
          ]
        ]
      }
    },
    {
      "type": "Feature",
      "properties": {
        "feature_type": "iceberg_drift_cone",
        "iceberg_id": "D15B",
        "n_ensemble_members": 9
      },
      "geometry": {
        "type": "MultiPoint",
        "coordinates": [
          [
            81.36926728029472,
            -67.1969800623602
          ],
          [
            81.38950228765073,
            -67.17947730183502
          ],
          [
            81.30274283583176,
            -67.25126411887135
          ],
          [
            81.28159211945523,
            -67.26605658449317
          ],
          [
            81.34638288609135,
            -67.21297541176978
          ],
          [
            81.36386656581074,
            -67.20472931308795
          ],
          [
            81.42808273700645,
            -67.14819213535263
          ],
          [
            81.35500031625352,
            -67.20685324673565
          ],
          [
            81.38219983896893,
            -67.18360742484583
          ]
        ]
      }
    },
    {
      "type": "Feature",
      "properties": {
        "feature_type": "iceberg_current",
        "iceberg_id": "D15C",
        "length_m": 25928.0,
        "width_m": 12964.0
      },
      "geometry": {
        "type": "Point",
        "coordinates": [
          79.41,
          -67.22
        ]
      }
    },
    {
      "type": "Feature",
      "properties": {
        "feature_type": "iceberg_predicted_track",
        "iceberg_id": "D15C"
      },
      "geometry": {
        "type": "LineString",
        "coordinates": [
          [
            79.41,
            -67.22
          ],
          [
            79.4461943187504,
            -67.20741851782724
          ],
          [
            79.31555527887977,
            -67.26298631150026
          ],
          [
            79.29665828989206,
            -67.27171501929698
          ],
          [
            79.30200168033817,
            -67.28535530528302
          ],
          [
            79.29081545654607,
            -67.30821743093307
          ],
          [
            79.03112810418918,
            -67.40629589663946
          ],
          [
            78.92258969955016,
            -67.47679789636257
          ]
        ]
      }
    },
    {
      "type": "Feature",
      "properties": {
        "feature_type": "iceberg_drift_cone",
        "iceberg_id": "D15C",
        "n_ensemble_members": 9
      },
      "geometry": {
        "type": "MultiPoint",
        "coordinates": [
          [
            78.92258969955016,
            -67.47679789636257
          ],
          [
            78.8379820272574,
            -67.52057956244474
          ],
          [
            78.8655333614996,
            -67.50618958279051
          ],
          [
            78.94164135496924,
            -67.4668125438209
          ],
          [
            78.67299850177741,
            -67.60327229663902
          ],
          [
            78.66984376843938,
            -67.6048995268912
          ],
          [
            78.80223653285228,
            -67.53923618912356
          ],
          [
            78.96871869409203,
            -67.4526134808446
          ],
          [
            78.58158452033976,
            -67.64854065064938
          ]
        ]
      }
    },
    {
      "type": "Feature",
      "properties": {
        "feature_type": "iceberg_current",
        "iceberg_id": "D15D",
        "length_m": 14816.0,
        "width_m": 11112.0
      },
      "geometry": {
        "type": "Point",
        "coordinates": [
          79.3,
          -67.29
        ]
      }
    },
    {
      "type": "Feature",
      "properties": {
        "feature_type": "iceberg_predicted_track",
        "iceberg_id": "D15D"
      },
      "geometry": {
        "type": "LineString",
        "coordinates": [
          [
            79.3,
            -67.29
          ],
          [
            79.34084789528445,
            -67.28428201253884
          ],
          [
            79.24361885073847,
            -67.33289167789636
          ],
          [
            79.22092558596428,
            -67.34065929470744
          ],
          [
            79.22693026252148,
            -67.35405081257801
          ],
          [
            79.21586466283915,
            -67.37699908680008
          ],
          [
            78.93880074703614,
            -67.48139390583843
          ],
          [
            78.82559091675847,
            -67.55371587275597
          ]
        ]
      }
    },
    {
      "type": "Feature",
      "properties": {
        "feature_type": "iceberg_drift_cone",
        "iceberg_id": "D15D",
        "n_ensemble_members": 9
      },
      "geometry": {
        "type": "MultiPoint",
        "coordinates": [
          [
            78.82559091675847,
            -67.55371587275597
          ],
          [
            78.61972197652219,
            -67.66528842639656
          ],
          [
            79.00281733546389,
            -67.45767166118684
          ],
          [
            78.7166607908057,
            -67.61177514138284
          ],
          [
            78.7550461165398,
            -67.59047655235192
          ],
          [
            78.71087468595736,
            -67.6150650662476
          ],
          [
            78.92667523299485,
            -67.50067898378126
          ],
          [
            78.99742120367306,
            -67.4607137383867
          ],
          [
            78.8996701246381,
            -67.51529160212577
          ]
        ]
      }
    },
    {
      "type": "Feature",
      "properties": {
        "feature_type": "iceberg_current",
        "iceberg_id": "D23",
        "length_m": 12964.0,
        "width_m": 11112.0
      },
      "geometry": {
        "type": "Point",
        "coordinates": [
          74.71,
          -69.44
        ]
      }
    },
    {
      "type": "Feature",
      "properties": {
        "feature_type": "iceberg_predicted_track",
        "iceberg_id": "D23"
      },
      "geometry": {
        "type": "LineString",
        "coordinates": [
          [
            74.71,
            -69.44
          ],
          [
            74.64993452759573,
            -69.39911500197456
          ],
          [
            74.4505237365751,
            -69.35086397817547
          ],
          [
            74.3648199046346,
            -69.27526928053167
          ],
          [
            74.20905429643803,
            -69.23782185977834
          ],
          [
            74.04914487406383,
            -69.22568876329679
          ],
          [
            73.64828315279328,
            -69.25634291309468
          ],
          [
            73.32213101407457,
            -69.29120339392917
          ]
        ]
      }
    },
    {
      "type": "Feature",
      "properties": {
        "feature_type": "iceberg_drift_cone",
        "iceberg_id": "D23",
        "n_ensemble_members": 9
      },
      "geometry": {
        "type": "MultiPoint",
        "coordinates": [
          [
            73.32213101407457,
            -69.29120339392917
          ],
          [
            73.42698233603838,
            -69.30415954559356
          ],
          [
            72.76513684634673,
            -69.23130413621888
          ],
          [
            74.23568974953089,
            -69.39311786143239
          ],
          [
            73.0385412952029,
            -69.25801730792837
          ],
          [
            73.57894767785574,
            -69.32314410682694
          ],
          [
            73.86845130708278,
            -69.35622033138995
          ],
          [
            72.93990009031623,
            -69.24501517523737
          ],
          [
            72.49734940091928,
            -69.19565622759535
          ]
        ]
      }
    },
    {
      "type": "Feature",
      "properties": {
        "feature_type": "iceberg_current",
        "iceberg_id": "D34",
        "length_m": 20372.0,
        "width_m": 14816.0
      },
      "geometry": {
        "type": "Point",
        "coordinates": [
          82.06,
          -67.16
        ]
      }
    },
    {
      "type": "Feature",
      "properties": {
        "feature_type": "iceberg_predicted_track",
        "iceberg_id": "D34"
      },
      "geometry": {
        "type": "LineString",
        "coordinates": [
          [
            82.06,
            -67.16
          ],
          [
            82.09523686311545,
            -67.16038567411327
          ],
          [
            82.078443433317,
            -67.18038890302147
          ],
          [
            82.08687380026122,
            -67.19399513655105
          ],
          [
            82.0871636514809,
            -67.20571599132045
          ],
          [
            82.07820244982132,
            -67.22385648667135
          ],
          [
            81.96219392571298,
            -67.27183096854851
          ],
          [
            81.88897956560669,
            -67.34544208683033
          ]
        ]
      }
    },
    {
      "type": "Feature",
      "properties": {
        "feature_type": "iceberg_drift_cone",
        "iceberg_id": "D34",
        "n_ensemble_members": 9
      },
      "geometry": {
        "type": "MultiPoint",
        "coordinates": [
          [
            81.88897956560669,
            -67.34544208683033
          ],
          [
            81.92306085031302,
            -67.31725657692381
          ],
          [
            81.96358143684961,
            -67.27282609009892
          ],
          [
            81.8527488739495,
            -67.36387464985933
          ],
          [
            81.82144512980939,
            -67.41369096691756
          ],
          [
            81.7798358227883,
            -67.429647097284
          ],
          [
            81.787517673838,
            -67.42987302228781
          ],
          [
            81.94798356663892,
            -67.2886730047394
          ],
          [
            81.83470012575653,
            -67.39737537539808
          ]
        ]
      }
    }
  ]
}